[{"COMMENT":"GENERATED VIA SPACETRACK.ORG API","ORIGINATOR":"18 SPCS","NORAD_CAT_ID":"43477","OBJECT_NAME":"GRACE-FO 2","OBJECT_TYPE":"PAYLOAD","CLASSIFICATION_TYPE":"U","INTLDES":"18047B","EPOCH":"2024-01-01 03:23:06","EPOCH_MICROSECONDS":"714816","MEAN_MOTION":"15.27736878","ECCENTRICITY":"0.0013739","INCLINATION":"88.9838","RA_OF_ASC_NODE":"322.1988","ARG_OF_PERICENTER":"9.6115","MEAN_ANOMALY":"350.5395","EPHEMERIS_TYPE":"0","ELEMENT_SET_NO":"999","REV_AT_EPOCH":"31220","BSTAR":"0.00013095","MEAN_MOTION_DOT":"0.00003584","MEAN_MOTION_DDOT":"0","FILE":"4150468","TLE_LINE0":"0 GRACE-FO 2","TLE_LINE1":"1 43477U 18047B   24001.14104994  .00003584  00000-0  13095-3 0  9995","TLE_LINE2":"2 43477  88.9838 322.1988 0013739   9.6115 350.5395 15.27736878312201","OBJECT_ID":"2018-047B","OBJECT_NUMBER":"43477","SEMIMAJOR_AXIS":"6860.716","PERIOD":"94.257","APOGEE":"492.007","PERIGEE":"473.155","DECAYED":"0"},{"COMMENT":"GENERATED VIA SPACETRACK.ORG API","ORIGINATOR":"18 SPCS","NORAD_CAT_ID":"43477","OBJECT_NAME":"GRACE-FO 2","OBJECT_TYPE":"PAYLOAD","CLASSIFICATION_TYPE":"U","INTLDES":"18047B","EPOCH":"2024-01-01 14:23:22","EPOCH_MICROSECONDS":"282944","MEAN_MOTION":"15.27740956","ECCENTRICITY":"0.0013642","INCLINATION":"88.9838","RA_OF_ASC_NODE":"322.1361","ARG_OF_PERICENTER":"7.9245","MEAN_ANOMALY":"352.2218","EPHEMERIS_TYPE":"0","ELEMENT_SET_NO":"999","REV_AT_EPOCH":"31227","BSTAR":"0.00013742","MEAN_MOTION_DOT":"0.0000376","MEAN_MOTION_DDOT":"0","FILE":"4150923","TLE_LINE0":"0 GRACE-FO 2","TLE_LINE1":"1 43477U 18047B   24001.59956346  .00003760  00000-0  13742-3 0  9995","TLE_LINE2":"2 43477  88.9838 322.1361 0013642   7.9245 352.2218 15.27740956312276","OBJECT_ID":"2018-047B","OBJECT_NUMBER":"43477","SEMIMAJOR_AXIS":"6860.704","PERIOD":"94.257","APOGEE":"491.929","PERIGEE":"473.210","DECAYED":"0"},{"COMMENT":"GENERATED VIA SPACETRACK.ORG API","ORIGINATOR":"18 SPCS","NORAD_CAT_ID":"43477","OBJECT_NAME":"GRACE-FO 2","OBJECT_TYPE":"PAYLOAD","CLASSIFICATION_TYPE":"U","INTLDES":"18047B","EPOCH":"2024-01-01 22:14:59","EPOCH_MICROSECONDS":"60544","MEAN_MOTION":"15.27743705","ECCENTRICITY":"0.0013573","INCLINATION":"88.9838","RA_OF_ASC_NODE":"322.0913","ARG_OF_PERICENTER":"6.6989","MEAN_ANOMALY":"353.444","EPHEMERIS_TYPE":"0","ELEMENT_SET_NO":"999","REV_AT_EPOCH":"31232","BSTAR":"0.00013905","MEAN_MOTION_DOT":"0.00003805","MEAN_MOTION_DDOT":"0","FILE":"4151465","TLE_LINE0":"0 GRACE-FO 2","TLE_LINE1":"1 43477U 18047B   24001.92707246  .00003805  00000-0  13905-3 0  9996","TLE_LINE2":"2 43477  88.9838 322.0913 0013573   6.6989 353.4440 15.27743705312323","OBJECT_ID":"2018-047B","OBJECT_NUMBER":"43477","SEMIMAJOR_AXIS":"6860.696","PERIOD":"94.257","APOGEE":"491.873","PERIGEE":"473.249","DECAYED":"0"},{"COMMENT":"GENERATED VIA SPACETRACK.ORG API","ORIGINATOR":"18 SPCS","NORAD_CAT_ID":"43477","OBJECT_NAME":"GRACE-FO 2","OBJECT_TYPE":"PAYLOAD","CLASSIFICATION_TYPE":"U","INTLDES":"18047B","EPOCH":"2024-01-02 10:49:33","EPOCH_MICROSECONDS":"802752","MEAN_MOTION":"15.27748568","ECCENTRICITY":"0.0013464","INCLINATION":"88.9838","RA_OF_ASC_NODE":"322.0197","ARG_OF_PERICENTER":"4.7683","MEAN_ANOMALY":"355.3692","EPHEMERIS_TYPE":"0","ELEMENT_SET_NO":"999","REV_AT_EPOCH":"31240","BSTAR":"0.00015295","MEAN_MOTION_DOT":"0.00004182","MEAN_MOTION_DDOT":"0","FILE":"4151495","TLE_LINE0":"0 GRACE-FO 2","TLE_LINE1":"1 43477U 18047B   24002.45108568  .00004182  00000-0  15295-3 0  9990","TLE_LINE2":"2 43477  88.9838 322.0197 0013464   4.7683 355.3692 15.27748568312407","OBJECT_ID":"2018-047B","OBJECT_NUMBER":"43477","SEMIMAJOR_AXIS":"6860.681","PERIOD":"94.256","APOGEE":"491.784","PERIGEE":"473.309","DECAYED":"0"},{"COMMENT":"GENERATED VIA SPACETRACK.ORG API","ORIGINATOR":"18 SPCS","NORAD_CAT_ID":"43477","OBJECT_NAME":"GRACE-FO 2","OBJECT_TYPE":"PAYLOAD","CLASSIFICATION_TYPE":"U","INTLDES":"18047B","EPOCH":"2024-01-02 13:58:12","EPOCH_MICROSECONDS":"487008","MEAN_MOTION":"15.27748876","ECCENTRICITY":"0.0013434","INCLINATION":"88.9838","RA_OF_ASC_NODE":"322.0018","ARG_OF_PERICENTER":"4.2846","MEAN_ANOMALY":"355.8516","EPHEMERIS_TYPE":"0","ELEMENT_SET_NO":"999","REV_AT_EPOCH":"31242","BSTAR":"0.00014453","MEAN_MOTION_DOT":"0.00003954","MEAN_MOTION_DDOT":"0","FILE":"4151729","TLE_LINE0":"0 GRACE-FO 2","TLE_LINE1":"1 43477U 18047B   24002.58208897  .00003954  00000-0  14453-3 0  9991","TLE_LINE2":"2 43477  88.9838 322.0018 0013434   4.2846 355.8516 15.27748876312426","OBJECT_ID":"2018-047B","OBJECT_NUMBER":"43477","SEMIMAJOR_AXIS":"6860.680","PERIOD":"94.256","APOGEE":"491.762","PERIGEE":"473.329","DECAYED":"0"},{"COMMENT":"GENERATED VIA SPACETRACK.ORG API","ORIGINATOR":"18 SPCS","NORAD_CAT_ID":"43477","OBJECT_NAME":"GRACE-FO 2","OBJECT_TYPE":"PAYLOAD","CLASSIFICATION_TYPE":"U","INTLDES":"18047B","EPOCH":"2024-01-02 21:49:49","EPOCH_MICROSECONDS":"133280","MEAN_MOTION":"15.27751081","ECCENTRICITY":"0.0013372","INCLINATION":"88.9838","RA_OF_ASC_NODE":"321.957","ARG_OF_PERICENTER":"3.0436","MEAN_ANOMALY":"357.0892","EPHEMERIS_TYPE":"0","ELEMENT_SET_NO":"999","REV_AT_EPOCH":"31247","BSTAR":"0.00013957","MEAN_MOTION_DOT":"0.00003819","MEAN_MOTION_DDOT":"0","FILE":"4151993","TLE_LINE0":"0 GRACE-FO 2","TLE_LINE1":"1 43477U 18047B   24002.90959645  .00003819  00000-0  13957-3 0  9999","TLE_LINE2":"2 43477  88.9838 321.9570 0013372   3.0436 357.0892 15.27751081312478","OBJECT_ID":"2018-047B","OBJECT_NUMBER":"43477","SEMIMAJOR_AXIS":"6860.674","PERIOD":"94.256","APOGEE":"491.713","PERIGEE":"473.365","DECAYED":"0"},{"COMMENT":"GENERATED VIA SPACETRACK.ORG API","ORIGINATOR":"18 SPCS","NORAD_CAT_ID":"43477","OBJECT_NAME":"GRACE-FO 2","OBJECT_TYPE":"PAYLOAD","CLASSIFICATION_TYPE":"U","INTLDES":"18047B","EPOCH":"2024-01-03 13:33:02","EPOCH_MICROSECONDS":"280672","MEAN_MOTION":"15.27756094","ECCENTRICITY":"0.0013226","INCLINATION":"88.9837","RA_OF_ASC_NODE":"321.8675","ARG_OF_PERICENTER":"0.5956","MEAN_ANOMALY":"359.5307","EPHEMERIS_TYPE":"0","ELEMENT_SET_NO":"999","REV_AT_EPOCH":"31257","BSTAR":"0.00014365","MEAN_MOTION_DOT":"0.0000393","MEAN_MOTION_DDOT":"0","FILE":"4152560","TLE_LINE0":"0 GRACE-FO 2","TLE_LINE1":"1 43477U 18047B   24003.56460973  .00003930  00000-0  14365-3 0  9991","TLE_LINE2":"2 43477  88.9837 321.8675 0013226   0.5956 359.5307 15.27756094312577","OBJECT_ID":"2018-047B","OBJECT_NUMBER":"43477","SEMIMAJOR_AXIS":"6860.659","PERIOD":"94.256","APOGEE":"491.598","PERIGEE":"473.450","DECAYED":"0"},{"COMMENT":"GENERATED VIA SPACETRACK.ORG API","ORIGINATOR":"18 SPCS","NORAD_CAT_ID":"43477","OBJECT_NAME":"GRACE-FO 2","OBJECT_TYPE":"PAYLOAD","CLASSIFICATION_TYPE":"U","INTLDES":"18047B","EPOCH":"2024-01-03 19:50:19","EPOCH_MICROSECONDS":"491072","MEAN_MOTION":"15.27758071","ECCENTRICITY":"0.0013176","INCLINATION":"88.9836","RA_OF_ASC_NODE":"321.8317","ARG_OF_PERICENTER":"359.5964","MEAN_ANOMALY":"0.5273","EPHEMERIS_TYPE":"0","ELEMENT_SET_NO":"999","REV_AT_EPOCH":"31261","BSTAR":"0.00014138","MEAN_MOTION_DOT":"0.00003869","MEAN_MOTION_DDOT":"0","FILE":"4152624","TLE_LINE0":"0 GRACE-FO 2","TLE_LINE1":"1 43477U 18047B   24003.82661448  .00003869  00000-0  14138-3 0  9999","TLE_LINE2":"2 43477  88.9836 321.8317 0013176 359.5964   0.5273 15.27758071312616","OBJECT_ID":"2018-047B","OBJECT_NUMBER":"43477","SEMIMAJOR_AXIS":"6860.653","PERIOD":"94.256","APOGEE":"491.558","PERIGEE":"473.478","DECAYED":"0"},{"COMMENT":"GENERATED VIA SPACETRACK.ORG API","ORIGINATOR":"18 SPCS","NORAD_CAT_ID":"43477","OBJECT_NAME":"GRACE-FO 2","OBJECT_TYPE":"PAYLOAD","CLASSIFICATION_TYPE":"U","INTLDES":"18047B","EPOCH":"2024-01-03 21:24:38","EPOCH_MICROSECONDS":"791296","MEAN_MOTION":"15.27758963","ECCENTRICITY":"0.0013165","INCLINATION":"88.9836","RA_OF_ASC_NODE":"321.8227","ARG_OF_PERICENTER":"359.3396","MEAN_ANOMALY":"0.7834","EPHEMERIS_TYPE":"0","ELEMENT_SET_NO":"999","REV_AT_EPOCH":"31262","BSTAR":"0.0001488","MEAN_MOTION_DOT":"0.0000407","MEAN_MOTION_DDOT":"0","FILE":"4152812","TLE_LINE0":"0 GRACE-FO 2","TLE_LINE1":"1 43477U 18047B   24003.89211564  .00004070  00000-0  14880-3 0  9995","TLE_LINE2":"2 43477  88.9836 321.8227 0013165 359.3396   0.7834 15.27758963312627","OBJECT_ID":"2018-047B","OBJECT_NUMBER":"43477","SEMIMAJOR_AXIS":"6860.650","PERIOD":"94.256","APOGEE":"491.547","PERIGEE":"473.483","DECAYED":"0"},{"COMMENT":"GENERATED VIA SPACETRACK.ORG API","ORIGINATOR":"18 SPCS","NORAD_CAT_ID":"43477","OBJECT_NAME":"GRACE-FO 2","OBJECT_TYPE":"PAYLOAD","CLASSIFICATION_TYPE":"U","INTLDES":"18047B","EPOCH":"2024-01-04 13:07:51","EPOCH_MICROSECONDS":"644064","MEAN_MOTION":"15.27763658","ECCENTRICITY":"0.0013035","INCLINATION":"88.9836","RA_OF_ASC_NODE":"321.733","ARG_OF_PERICENTER":"356.8154","MEAN_ANOMALY":"3.301","EPHEMERIS_TYPE":"0","ELEMENT_SET_NO":"999","REV_AT_EPOCH":"31272","BSTAR":"0.00014209","MEAN_MOTION_DOT":"0.00003889","MEAN_MOTION_DDOT":"0","FILE":"4153368","TLE_LINE0":"0 GRACE-FO 2","TLE_LINE1":"1 43477U 18047B   24004.54712551  .00003889  00000-0  14209-3 0  9992","TLE_LINE2":"2 43477  88.9836 321.7330 0013035 356.8154   3.3010 15.27763658312724","OBJECT_ID":"2018-047B","OBJECT_NUMBER":"43477","SEMIMAJOR_AXIS":"6860.636","PERIOD":"94.255","APOGEE":"491.444","PERIGEE":"473.558","DECAYED":"0"}]